CCSDS_OMM_VERS = 2.0
CREATION_DATE  = 
ORIGINATOR     = 

OBJECT_NAME    = XINZHENGCHENG-01
OBJECT_ID      = 2026-066A
CENTER_NAME    = EARTH
REF_FRAME      = TEME
TIME_SYSTEM    = UTC
MEAN_ELEMENT_THEORY = SGP/SGP4

EPOCH          = 2026-04-02T23:56:28.789152
MEAN_MOTION    = 14.88095472
ECCENTRICITY   = .00234411
INCLINATION    = 84.8508
RA_OF_ASC_NODE = 275.7933
ARG_OF_PERICENTER = 189.3714
MEAN_ANOMALY   = 170.7075

EPHEMERIS_TYPE = 0
CLASSIFICATION_TYPE = U
NORAD_CAT_ID   = 68412
ELEMENT_SET_NO = 999
REV_AT_EPOCH   = 54
BSTAR          = .13573271E-3
MEAN_MOTION_DOT = .1283E-4
MEAN_MOTION_DDOT = 0

CCSDS_OMM_VERS = 2.0
CREATION_DATE  = 
ORIGINATOR     = 

OBJECT_NAME    = LIJIAN-2 R/B
OBJECT_ID      = 2026-066B
CENTER_NAME    = EARTH
REF_FRAME      = TEME
TIME_SYSTEM    = UTC
MEAN_ELEMENT_THEORY = SGP/SGP4

EPOCH          = 2026-03-31T18:24:33.055200
MEAN_MOTION    = 15.04815352
ECCENTRICITY   = .06052317
INCLINATION    = 84.7161
RA_OF_ASC_NODE = 277.0200
ARG_OF_PERICENTER = 206.6432
MEAN_ANOMALY   = 150.2503

EPHEMERIS_TYPE = 0
CLASSIFICATION_TYPE = U
NORAD_CAT_ID   = 68413
ELEMENT_SET_NO = 999
REV_AT_EPOCH   = 20
BSTAR          = .21174642E-3
MEAN_MOTION_DOT = .2524605E-1
MEAN_MOTION_DDOT = -.1158743E-5

CCSDS_OMM_VERS = 2.0
CREATION_DATE  = 
ORIGINATOR     = 

OBJECT_NAME    = 2026-066C
OBJECT_ID      = 2026-066C
CENTER_NAME    = EARTH
REF_FRAME      = TEME
TIME_SYSTEM    = UTC
MEAN_ELEMENT_THEORY = SGP/SGP4

EPOCH          = 2026-04-03T06:23:46.067424
MEAN_MOTION    = 14.88482509
ECCENTRICITY   = .00271335
INCLINATION    = 84.9610
RA_OF_ASC_NODE = 275.4168
ARG_OF_PERICENTER = 151.2579
MEAN_ANOMALY   = 209.0147

EPHEMERIS_TYPE = 0
CLASSIFICATION_TYPE = U
NORAD_CAT_ID   = 68414
ELEMENT_SET_NO = 999
REV_AT_EPOCH   = 58
BSTAR          = .23262862E-3
MEAN_MOTION_DOT = .2203E-4
MEAN_MOTION_DDOT = 0

CCSDS_OMM_VERS = 2.0
CREATION_DATE  = 
ORIGINATOR     = 

OBJECT_NAME    = SL-4 R/B
OBJECT_ID      = 2026-061S
CENTER_NAME    = EARTH
REF_FRAME      = TEME
TIME_SYSTEM    = UTC
MEAN_ELEMENT_THEORY = SGP/SGP4

EPOCH          = 2026-04-03T01:00:55.423296
MEAN_MOTION    = 15.91543707
ECCENTRICITY   = .00255593
INCLINATION    = 82.3046
RA_OF_ASC_NODE = 97.0017
ARG_OF_PERICENTER = 32.1285
MEAN_ANOMALY   = 328.1539

EPHEMERIS_TYPE = 0
CLASSIFICATION_TYPE = U
NORAD_CAT_ID   = 68537
ELEMENT_SET_NO = 999
REV_AT_EPOCH   = 164
BSTAR          = .83776362E-3
MEAN_MOTION_DOT = .277827E-2
MEAN_MOTION_DDOT = .27262731E-4

CCSDS_OMM_VERS = 2.0
CREATION_DATE  = 
ORIGINATOR     = 

OBJECT_NAME    = 2026-069B
OBJECT_ID      = 2026-069B
CENTER_NAME    = EARTH
REF_FRAME      = TEME
TIME_SYSTEM    = UTC
MEAN_ELEMENT_THEORY = SGP/SGP4

EPOCH          = 2026-04-02T13:12:59.999616
MEAN_MOTION    = 1.02407762
ECCENTRICITY   = .8430033
INCLINATION    = 28.3448
RA_OF_ASC_NODE = 359.8421
ARG_OF_PERICENTER = 77.7942
MEAN_ANOMALY   = 194.3023

EPHEMERIS_TYPE = 0
CLASSIFICATION_TYPE = U
NORAD_CAT_ID   = 68539
ELEMENT_SET_NO = 999
REV_AT_EPOCH   = 0
BSTAR          = -.71298E-2
MEAN_MOTION_DOT = -.190496E-2
MEAN_MOTION_DDOT = .11727E-5

CCSDS_OMM_VERS = 2.0
CREATION_DATE  = 
ORIGINATOR     = 

OBJECT_NAME    = 2026-069C
OBJECT_ID      = 2026-069C
CENTER_NAME    = EARTH
REF_FRAME      = TEME
TIME_SYSTEM    = UTC
MEAN_ELEMENT_THEORY = SGP/SGP4

EPOCH          = 2026-04-02T12:20:34.000224
MEAN_MOTION    = 1.01813090
ECCENTRICITY   = .8353883
INCLINATION    = 28.3256
RA_OF_ASC_NODE = 359.7521
ARG_OF_PERICENTER = 77.6495
MEAN_ANOMALY   = 183.0402

EPHEMERIS_TYPE = 0
CLASSIFICATION_TYPE = U
NORAD_CAT_ID   = 68540
ELEMENT_SET_NO = 999
REV_AT_EPOCH   = 0
BSTAR          = -.17117E+1
MEAN_MOTION_DOT = -.74286E-3
MEAN_MOTION_DDOT = 0

CCSDS_OMM_VERS = 2.0
CREATION_DATE  = 
ORIGINATOR     = 

OBJECT_NAME    = 2026-069D
OBJECT_ID      = 2026-069D
CENTER_NAME    = EARTH
REF_FRAME      = TEME
TIME_SYSTEM    = UTC
MEAN_ELEMENT_THEORY = SGP/SGP4

EPOCH          = 2026-04-02T16:16:32.999808
MEAN_MOTION    = 1.02517944
ECCENTRICITY   = .8450105
INCLINATION    = 28.3341
RA_OF_ASC_NODE = 359.8703
ARG_OF_PERICENTER = 77.6642
MEAN_ANOMALY   = 243.1767

EPHEMERIS_TYPE = 0
CLASSIFICATION_TYPE = U
NORAD_CAT_ID   = 68541
ELEMENT_SET_NO = 999
REV_AT_EPOCH   = 3
BSTAR          = -.17218E-4
MEAN_MOTION_DOT = -.78411E-3
MEAN_MOTION_DDOT = .19505E-5

